VNULEO-0066
1 00066U 26001A   26001.50000000  .00000000  00000-0  00000-0 0  9990
2 00066 090.0000 025.7143 0000001 000.0000 272.4324 12.41559304   660
VNULEO-0067
1 00067U 26001A   26001.50000000  .00000000  00000-0  00000-0 0  9990
2 00067 090.0000 025.7143 0000001 000.0000 282.1622 12.41559304   670
VNULEO-0068
1 00068U 26001A   26001.50000000  .00000000  00000-0  00000-0 0  9990
2 00068 090.0000 025.7143 0000001 000.0000 291.8919 12.41559304   680
VNULEO-0069
1 00069U 26001A   26001.50000000  .00000000  00000-0  00000-0 0  9990
2 00069 090.0000 025.7143 0000001 000.0000 301.6216 12.41559304   690
VNULEO-0070
1 00070U 26001A   26001.50000000  .00000000  00000-0  00000-0 0  9990
2 00070 090.0000 025.7143 0000001 000.0000 311.3514 12.41559304   700
VNULEO-0071
1 00071U 26001A   26001.50000000  .00000000  00000-0  00000-0 0  9990
2 00071 090.0000 025.7143 0000001 000.0000 321.0811 12.41559304   710
VNULEO-0072
1 00072U 26001A   26001.50000000  .00000000  00000-0  00000-0 0  9990
2 00072 090.0000 025.7143 0000001 000.0000 330.8108 12.41559304   720
VNULEO-0073
1 00073U 26001A   26001.50000000  .00000000  00000-0  00000-0 0  9990
2 00073 090.0000 025.7143 0000001 000.0000 340.5405 12.41559304   730
VNULEO-0074
1 00074U 26001A   26001.50000000  .00000000  00000-0  00000-0 0  9990
2 00074 090.0000 025.7143 0000001 000.0000 350.2703 12.41559304   740
VNULEO-0075
1 00075U 26001A   26001.50000000  .00000000  00000-0  00000-0 0  9990
2 00075 090.0000 051.4286 0000001 000.0000 000.0000 12.41559304   750
VNULEO-0076
1 00076U 26001A   26001.50000000  .00000000  00000-0  00000-0 0  9990
2 00076 090.0000 051.4286 0000001 000.0000 009.7297 12.41559304   760
VNULEO-0077
1 00077U 26001A   26001.50000000  .00000000  00000-0  00000-0 0  9990
2 00077 090.0000 051.4286 0000001 000.0000 019.4595 12.41559304   770
VNULEO-0078
1 00078U 26001A   26001.50000000  .00000000  00000-0  00000-0 0  9990
2 00078 090.0000 051.4286 0000001 000.0000 029.1892 12.41559304   780
VNULEO-0079
1 00079U 26001A   26001.50000000  .00000000  00000-0  00000-0 0  9990
2 00079 090.0000 051.4286 0000001 000.0000 038.9189 12.41559304   790
VNULEO-0080
1 00080U 26001A   26001.50000000  .00000000  00000-0  00000-0 0  9990
2 00080 090.0000 051.4286 0000001 000.0000 048.6486 12.41559304   800
VNULEO-0081
1 00081U 26001A   26001.50000000  .00000000  00000-0  00000-0 0  9990
2 00081 090.0000 051.4286 0000001 000.0000 058.3784 12.41559304   810
VNULEO-0082
1 00082U 26001A   26001.50000000  .00000000  00000-0  00000-0 0  9990
2 00082 090.0000 051.4286 0000001 000.0000 068.1081 12.41559304   820
VNULEO-0083
1 00083U 26001A   26001.50000000  .00000000  00000-0  00000-0 0  9990
2 00083 090.0000 051.4286 0000001 000.0000 077.8378 12.41559304   830
VNULEO-0084
1 00084U 26001A   26001.50000000  .00000000  00000-0  00000-0 0  9990
2 00084 090.0000 051.4286 0000001 000.0000 087.5676 12.41559304   840
VNULEO-0085
1 00085U 26001A   26001.50000000  .00000000  00000-0  00000-0 0  9990
2 00085 090.0000 051.4286 0000001 000.0000 097.2973 12.41559304   850
VNULEO-0086
1 00086U 26001A   26001.50000000  .00000000  00000-0  00000-0 0  9990
2 00086 090.0000 051.4286 0000001 000.0000 107.0270 12.41559304   860
VNULEO-0087
1 00087U 26001A   26001.50000000  .00000000  00000-0  00000-0 0  9990
2 00087 090.0000 051.4286 0000001 000.0000 116.7568 12.41559304   870
VNULEO-0088
1 00088U 26001A   26001.50000000  .00000000  00000-0  00000-0 0  9990
2 00088 090.0000 051.4286 0000001 000.0000 126.4865 12.41559304   880
VNULEO-0089
1 00089U 26001A   26001.50000000  .00000000  00000-0  00000-0 0  9990
2 00089 090.0000 051.4286 0000001 000.0000 136.2162 12.41559304   890
VNULEO-0090
1 00090U 26001A   26001.50000000  .00000000  00000-0  00000-0 0  9990
2 00090 090.0000 051.4286 0000001 000.0000 145.9459 12.41559304   900
VNULEO-0091
1 00091U 26001A   26001.50000000  .00000000  00000-0  00000-0 0  9990
2 00091 090.0000 051.4286 0000001 000.0000 155.6757 12.41559304   910
VNULEO-0092
1 00092U 26001A   26001.50000000  .00000000  00000-0  00000-0 0  9990
2 00092 090.0000 051.4286 0000001 000.0000 165.4054 12.41559304   920
VNULEO-0093
1 00093U 26001A   26001.50000000  .00000000  00000-0  00000-0 0  9990
2 00093 090.0000 051.4286 0000001 000.0000 175.1351 12.41559304   930
VNULEO-0094
1 00094U 26001A   26001.50000000  .00000000  00000-0  00000-0 0  9990
2 00094 090.0000 051.4286 0000001 000.0000 184.8649 12.41559304   940
VNULEO-0095
1 00095U 26001A   26001.50000000  .00000000  00000-0  00000-0 0  9990
2 00095 090.0000 051.4286 0000001 000.0000 194.5946 12.41559304   950
VNULEO-0096
1 00096U 26001A   26001.50000000  .00000000  00000-0  00000-0 0  9990
2 00096 090.0000 051.4286 0000001 000.0000 204.3243 12.41559304   960
VNULEO-0097
1 00097U 26001A   26001.50000000  .00000000  00000-0  00000-0 0  9990
2 00097 090.0000 051.4286 0000001 000.0000 214.0541 12.41559304   970
VNULEO-0098
1 00098U 26001A   26001.50000000  .00000000  00000-0  00000-0 0  9990
2 00098 090.0000 051.4286 0000001 000.0000 223.7838 12.41559304   980
VNULEO-0099
1 00099U 26001A   26001.50000000  .00000000  00000-0  00000-0 0  9990
2 00099 090.0000 051.4286 0000001 000.0000 233.5135 12.41559304   990
VNULEO-0100
1 00100U 26001A   26001.50000000  .00000000  00000-0  00000-0 0  9990
2 00100 090.0000 051.4286 0000001 000.0000 243.2432 12.41559304  1000
VNULEO-0101
1 00101U 26001A   26001.50000000  .00000000  00000-0  00000-0 0  9990
2 00101 090.0000 051.4286 0000001 000.0000 252.9730 12.41559304  1010
VNULEO-0102
1 00102U 26001A   26001.50000000  .00000000  00000-0  00000-0 0  9990
2 00102 090.0000 051.4286 0000001 000.0000 262.7027 12.41559304  1020
VNULEO-0103
1 00103U 26001A   26001.50000000  .00000000  00000-0  00000-0 0  9990
2 00103 090.0000 051.4286 0000001 000.0000 272.4324 12.41559304  1030
VNULEO-0104
1 00104U 26001A   26001.50000000  .00000000  00000-0  00000-0 0  9990
2 00104 090.0000 051.4286 0000001 000.0000 282.1622 12.41559304  1040
VNULEO-0105
1 00105U 26001A   26001.50000000  .00000000  00000-0  00000-0 0  9990
2 00105 090.0000 051.4286 0000001 000.0000 291.8919 12.41559304  1050
VNULEO-0106
1 00106U 26001A   26001.50000000  .00000000  00000-0  00000-0 0  9990
2 00106 090.0000 051.4286 0000001 000.0000 301.6216 12.41559304  1060
VNULEO-0107
1 00107U 26001A   26001.50000000  .00000000  00000-0  00000-0 0  9990
2 00107 090.0000 051.4286 0000001 000.0000 311.3514 12.41559304  1070
VNULEO-0108
1 00108U 26001A   26001.50000000  .00000000  00000-0  00000-0 0  9990
2 00108 090.0000 051.4286 0000001 000.0000 321.0811 12.41559304  1080
VNULEO-0109
1 00109U 26001A   26001.50000000  .00000000  00000-0  00000-0 0  9990
2 00109 090.0000 051.4286 0000001 000.0000 330.8108 12.41559304  1090
VNULEO-0110
1 00110U 26001A   26001.50000000  .00000000  00000-0  00000-0 0  9990
2 00110 090.0000 051.4286 0000001 000.0000 340.5405 12.41559304  1100
VNULEO-0111
1 00111U 26001A   26001.50000000  .00000000  00000-0  00000-0 0  9990
2 00111 090.0000 051.4286 0000001 000.0000 350.2703 12.41559304  1110
VNULEO-0112
1 00112U 26001A   26001.50000000  .00000000  00000-0  00000-0 0  9990
2 00112 090.0000 077.1429 0000001 000.0000 000.0000 12.41559304  1120
VNULEO-0113
1 00113U 26001A   26001.50000000  .00000000  00000-0  00000-0 0  9990
2 00113 090.0000 077.1429 0000001 000.0000 009.7297 12.41559304  1130
VNULEO-0114
1 00114U 26001A   26001.50000000  .00000000  00000-0  00000-0 0  9990
2 00114 090.0000 077.1429 0000001 000.0000 019.4595 12.41559304  1140
VNULEO-0115
1 00115U 26001A   26001.50000000  .00000000  00000-0  00000-0 0  9990
2 00115 090.0000 077.1429 0000001 000.0000 029.1892 12.41559304  1150
VNULEO-0116
1 00116U 26001A   26001.50000000  .00000000  00000-0  00000-0 0  9990
2 00116 090.0000 077.1429 0000001 000.0000 038.9189 12.41559304  1160
VNULEO-0117
1 00117U 26001A   26001.50000000  .00000000  00000-0  00000-0 0  9990
2 00117 090.0000 077.1429 0000001 000.0000 048.6486 12.41559304  1170
VNULEO-0118
1 00118U 26001A   26001.50000000  .00000000  00000-0  00000-0 0  9990
2 00118 090.0000 077.1429 0000001 000.0000 058.3784 12.41559304  1180
VNULEO-0119
1 00119U 26001A   26001.50000000  .00000000  00000-0  00000-0 0  9990
2 00119 090.0000 077.1429 0000001 000.0000 068.1081 12.41559304  1190
VNULEO-0120
1 00120U 26001A   26001.50000000  .00000000  00000-0  00000-0 0  9990
2 00120 090.0000 077.1429 0000001 000.0000 077.8378 12.41559304  1200
VNULEO-0121
1 00121U 26001A   26001.50000000  .00000000  00000-0  00000-0 0  9990
2 00121 090.0000 077.1429 0000001 000.0000 087.5676 12.41559304  1210
VNULEO-0122
1 00122U 26001A   26001.50000000  .00000000  00000-0  00000-0 0  9990
2 00122 090.0000 077.1429 0000001 000.0000 097.2973 12.41559304  1220
VNULEO-0123
1 00123U 26001A   26001.50000000  .00000000  00000-0  00000-0 0  9990
2 00123 090.0000 077.1429 0000001 000.0000 107.0270 12.41559304  1230
VNULEO-0124
1 00124U 26001A   26001.50000000  .00000000  00000-0  00000-0 0  9990
2 00124 090.0000 077.1429 0000001 000.0000 116.7568 12.41559304  1240
VNULEO-0125
1 00125U 26001A   26001.50000000  .00000000  00000-0  00000-0 0  9990
2 00125 090.0000 077.1429 0000001 000.0000 126.4865 12.41559304  1250
VNULEO-0126
1 00126U 26001A   26001.50000000  .00000000  00000-0  00000-0 0  9990
2 00126 090.0000 077.1429 0000001 000.0000 136.2162 12.41559304  1260
VNULEO-0127
1 00127U 26001A   26001.50000000  .00000000  00000-0  00000-0 0  9990
2 00127 090.0000 077.1429 0000001 000.0000 145.9459 12.41559304  1270
VNULEO-0128
1 00128U 26001A   26001.50000000  .00000000  00000-0  00000-0 0  9990
2 00128 090.0000 077.1429 0000001 000.0000 155.6757 12.41559304  1280
VNULEO-0129
1 00129U 26001A   26001.50000000  .00000000  00000-0  00000-0 0  9990
2 00129 090.0000 077.1429 0000001 000.0000 165.4054 12.41559304  1290
VNULEO-0130
1 00130U 26001A   26001.50000000  .00000000  00000-0  00000-0 0  9990
2 00130 090.0000 077.1429 0000001 000.0000 175.1351 12.41559304  1300
